{
    "links": {
        "self": "http://www.neowsapp.com/rest/v1/neo/3529601?api_key=iIulBulltgU6a56xZRHN4H3l9WmuAYTsLGpBGhQ2"
    },
    "id": "3529601",
    "neo_reference_id": "3529601",
    "name": "(2010 LB64)",
    "designation": "2010 LB64",
    "nasa_jpl_url": "http://ssd.jpl.nasa.gov/sbdb.cgi?sstr=3529601",
    "absolute_magnitude_h": 21.7,
    "estimated_diameter": {
        "kilometers": {
            "estimated_diameter_min": 0.1214940408,
            "estimated_diameter_max": 0.2716689341
        },
        "meters": {
            "estimated_diameter_min": 121.4940407996,
            "estimated_diameter_max": 271.6689340891
        },
        "miles": {
            "estimated_diameter_min": 0.0754928736,
            "estimated_diameter_max": 0.1688071972
        },
        "feet": {
            "estimated_diameter_min": 398.6025088171,
            "estimated_diameter_max": 891.3023057169
        }
    },
    "is_potentially_hazardous_asteroid": false,
    "close_approach_data": [
        {
            "close_approach_date": "2010-06-16",
            "close_approach_date_full": "2010-Jun-16 00:54",
            "epoch_date_close_approach": 1276649640000,
            "relative_velocity": {
                "kilometers_per_second": "26.8210233073",
                "kilometers_per_hour": "96555.6839061342",
                "miles_per_hour": "59995.9470360088"
            },
            "miss_distance": {
                "astronomical": "0.066671693",
                "lunar": "25.935288577",
                "kilometers": "9973943.26209391",
                "miles": "6197520.960199558"
            },
            "orbiting_body": "Earth"
        }
    ],
    "orbital_data": {
        "orbit_id": "8",
        "orbit_determination_date": "2017-04-06 08:57:21",
        "first_observation_date": "2010-06-13",
        "last_observation_date": "2010-06-15",
        "data_arc_in_days": 2,
        "observations_used": 60,
        "orbit_uncertainty": "9",
        "minimum_orbit_intersection": ".0547632",
        "jupiter_tisserand_invariant": "4.457",
        "epoch_osculation": "2455361.5",
        "eccentricity": ".2160508500318745",
        "semi_major_axis": "1.354988197466859",
        "inclination": "51.72091135673291",
        "ascending_node_longitude": "85.71027404768847",
        "orbital_period": "576.1050675177396",
        "perihelion_distance": "1.062241845620987",
        "perihelion_argument": "197.2944304065138",
        "aphelion_distance": "1.647734549312732",
        "perihelion_time": "2455379.663850166779",
        "mean_anomaly": "348.6496640478881",
        "mean_motion": ".6248860152387303",
        "equinox": "J2000",
        "orbit_class": {
            "orbit_class_type": "AMO",
            "orbit_class_description": "Near-Earth asteroid orbits similar to that of 1221 Amor",
            "orbit_class_range": "1.017 AU < q (perihelion) < 1.3 AU"
        }
    },
    "is_sentry_object": false
}